POLYITAN-1              
1 40042U 14033AJ  26197.99734918  .00010081  00000+0  30638-3 0  9998
2 40042  98.0931 227.1009 0007723  59.0704 301.1295 15.34258948658163
TIGRISAT                
1 40043U 14033AK  26197.96141644  .00000685  00000+0  84563-4 0  9990
2 40043  97.7867 347.2982 0048493 338.4903  21.4274 14.85252335650043
AEROCUBE 6A             
1 40045U 14033AM  26197.94391534  .00003216  00000+0  27140-3 0  9995
2 40045  97.7255   4.5832 0036190 274.9272  84.7819 14.98354655651070
AEROCUBE 6B             
1 40046U 14033AN  26197.98401539  .00002456  00000+0  20058-3 0  9993
2 40046  97.7204   4.4736 0038103 263.7831  95.9051 14.99807134651225
CANX-4                  
1 40055U 14034C   26198.14380579  .00000381  00000+0  56174-4 0  9997
2 40055  98.3080  74.5514 0011373 275.8115  84.1800 14.81313013648963
CANX-5                  
1 40056U 14034D   26198.14188901  .00000381  00000+0  56082-4 0  9991
2 40056  98.3083  74.5947 0011375 276.0834  83.9082 14.81330365639777
UKUBE-1                 
1 40074U 14037F   26198.24415102  .00004355  00000+0  24448-3 0  9996
2 40074  98.4243 204.6851 0003217  83.9152 276.2443 15.13967263653100
BRITE-PL2 (HEWELIUSZ)   
1 40119U 14049B   26197.89668719  .00000489  00000+0  50495-4 0  9999
2 40119  97.9120 310.1310 0014171  16.6624 343.5058 14.94689258645888
AEROCUBE 5C             
1 40965U 15058B   26197.94102997  .00001731  00000+0  16074-3 0  9991
2 40965  64.7647 170.0163 0132440  51.7932 309.5018 14.91582735370099
AEROCUBE 7              
1 40966U 15058C   26197.98547332  .00002653  00000+0  21755-3 0  9998
2 40966  64.7615 151.4659 0122160  50.0788 311.0985 14.95923765370410
FOX-1A (AO-85)          
1 40967U 15058D   26197.32760414  .00001582  00000+0  15016-3 0  9998
2 40967  64.7725 188.4142 0132456  45.3781 315.8042 14.91092003117917
SINOD-D 1               
1 40968U 15058E   26198.29412433  .00002721  00000+0  22217-3 0  9998
2 40968  64.7739 164.6142 0121229  41.3664 319.6553 14.96099889121166
SNAP-3 ALICE            
1 40970U 15058G   26197.84494593  .00100605  00000+0  89502-3 0  9998
2 40970  64.7497   0.8241 0024945 347.1222  12.9287 15.67559227121528
LMRST-SAT               
1 40971U 15058H   26197.35748516  .00001536  00000+0  14712-3 0  9996
2 40971  64.7732 184.7151 0134000  47.3672 313.8644 14.90707153117900
SNAP-3 EDDIE            
1 40972U 15058J   26197.81104900  .00105052  00000+0  88046-3 0  9990
2 40972  64.7408 351.4391 0026072 349.8624  10.1996 15.68956444123668
PROPCUBE 3              
1 40973U 15058K   26197.99027054  .00002187  00000+0  18759-3 0  9993
2 40973  64.7675 159.4067 0125912  48.3216 312.8592 14.94424333119251
BISONSAT                
1 40974U 15058L   26197.97069678  .00007466  00000+0  35467-3 0  9990
2 40974  64.7581  77.2896 0082329  35.0939 325.5570 15.16960539120138
SNAP-3 JIMI             
1 40975U 15058M   26198.20855708  .00003885  00000+0  26869-3 0  9992
2 40975  64.7650 124.7624 0107996  43.5616 317.3966 15.02625998118730
PROPCUBE 1 (FLORA)      
1 40976U 15058N   26198.27930422  .00001292  00000+0  13116-3 0  9998
2 40976  64.7717 201.9630 0132633  49.2919 311.9623 14.89334081120743
SINOD-D 3               
1 40977U 15058P   26197.95979446  .00002297  00000+0  19968-3 0  9999
2 40977  64.7706 182.8349 0121208  46.4590 314.6514 14.94182425119203
RAVAN                   
1 41849U 16067B   26197.68716448  .00037324  00000+0  50618-3 0  9996
2 41849  97.9839  90.7306 0002422 209.8992 150.2123 15.57575989532282
CELTEE 1                
1 41850U 16067C   26198.09773583  .00002721  00000+0  13018-3 0  9993
2 41850  98.0628  66.7044 0002362 107.7309 252.4182 15.19951703530429
OPTICUBE 04             
1 41851U 16067D   26197.83827258  .00000897  00000+0  59841-4 0  9991
2 41851  98.0673  51.6669 0016057  22.5432 337.6498 15.09775775529643
AEROCUBE 8D             
1 41852U 16067E   26198.08388691  .00004067  00000+0  16734-3 0  9999
2 41852  98.0637  70.5317 0004474  51.9450 308.2189 15.24785915530625
AEROCUBE 8C             
1 41853U 16067F   26197.57901483  .00004101  00000+0  16746-3 0  9995
2 41853  98.0512  67.1784 0004070 336.3351  23.7698 15.25035356530543
CORVUS BC2              
1 42846U 17042X   26197.95365840  .00001097  00000+0  78260-4 0  9996
2 42846  97.4092 358.1541 0013278  17.2142 342.9533 15.06460908491543
CORVUS BC1              
1 42847U 17042Y   26197.87858164  .00001449  00000+0  10165-3 0  9994
2 42847  97.4122 358.9151 0011468 354.1091   6.0000 15.06624631491562
MAKERSAT 0              
1 43016U 17073D   26197.43085670  .00011478  00000+0  30313-3 0  9993
2 43016  97.4577  80.1901 0105507 167.8681 192.5141 15.33035166470949
SIRION PATHFINDER-2     
1 43759U 18099B   26197.64576085  .00001892  00000+0  10542-3 0  9995
2 43759  97.4236 246.0049 0008606 186.2645 173.8481 15.14783275417083
CORVUS BC4              
1 43767U 18099K   26197.62635854  .00001806  00000+0  10674-3 0  9993
2 43767  97.4049 239.7463 0006558 254.7281 105.3225 15.12708038416856
