OBJECT_NAME,OBJECT_ID,EPOCH,MEAN_MOTION,ECCENTRICITY,INCLINATION,RA_OF_ASC_NODE,ARG_OF_PERICENTER,MEAN_ANOMALY,EPHEMERIS_TYPE,CLASSIFICATION_TYPE,NORAD_CAT_ID,ELEMENT_SET_NO,REV_AT_EPOCH,BSTAR,MEAN_MOTION_DOT,MEAN_MOTION_DDOT
POLYITAN-1,2014-033AJ,2026-07-16T23:56:10.969152,15.34258948,.00077238,98.0931,227.1009,59.0704,301.1295,0,U,40042,999,65816,.30638196E-3,.10081E-3,0
TIGRISAT,2014-033AK,2026-07-16T23:04:26.380416,14.85252335,.00484935,97.7867,347.2982,338.4903,21.4274,0,U,40043,999,65004,.8456304E-4,.685E-5,0
AEROCUBE 6A,2014-033AM,2026-07-16T22:39:14.285376,14.98354655,.00361906,97.7255,4.5832,274.9272,84.7819,0,U,40045,999,65107,.27139909E-3,.3216E-4,0
AEROCUBE 6B,2014-033AN,2026-07-16T23:36:58.929696,14.99807134,.00381039,97.7204,4.4736,263.7831,95.9051,0,U,40046,999,65122,.20058191E-3,.2456E-4,0
CANX-4,2014-034C,2026-07-17T03:27:04.820256,14.81313013,.00113734,98.3080,74.5514,275.8115,84.1800,0,U,40055,999,64896,.56173782E-4,.381E-5,0
CANX-5,2014-034D,2026-07-17T03:24:19.210464,14.81330365,.00113751,98.3083,74.5947,276.0834,83.9082,0,U,40056,999,63977,.56081724E-4,.381E-5,0
UKUBE-1,2014-037F,2026-07-17T05:51:34.648128,15.13967263,.00032177,98.4243,204.6851,83.9152,276.2443,0,U,40074,999,65310,.24447754E-3,.4355E-4,0
BRITE-PL2 (HEWELIUSZ),2014-049B,2026-07-16T21:31:13.773216,14.94689258,.00141718,97.9120,310.1310,16.6624,343.5058,0,U,40119,999,64588,.50494606E-4,.489E-5,0
AEROCUBE 5C,2015-058B,2026-07-16T22:35:04.989408,14.91582735,.01324403,64.7647,170.0163,51.7932,309.5018,0,U,40965,999,37009,.16074357E-3,.1731E-4,0
AEROCUBE 7,2015-058C,2026-07-16T23:39:04.894848,14.95923765,.01221603,64.7615,151.4659,50.0788,311.0985,0,U,40966,999,37041,.2175473E-3,.2653E-4,0
FOX-1A (AO-85),2015-058D,2026-07-16T07:51:44.997696,14.91092003,.0132456,64.7725,188.4142,45.3781,315.8042,0,U,40967,999,11791,.15016E-3,.1582E-4,0
SINOD-D 1,2015-058E,2026-07-17T07:03:32.342112,14.96099889,.01212297,64.7739,164.6142,41.3664,319.6553,0,U,40968,999,12116,.22217224E-3,.2721E-4,0
SNAP-3 ALICE,2015-058G,2026-07-16T20:16:43.328352,15.67559227,.00249452,64.7497,0.8241,347.1222,12.9287,0,U,40970,999,12152,.89501578E-3,.100605E-2,0
LMRST-SAT,2015-058H,2026-07-16T08:34:46.717824,14.90707153,.0134,64.7732,184.7151,47.3672,313.8644,0,U,40971,999,11790,.14712E-3,.1536E-4,0
SNAP-3 EDDIE,2015-058J,2026-07-16T19:27:54.633600,15.68956444,.00260721,64.7408,351.4391,349.8624,10.1996,0,U,40972,999,12366,.88045894E-3,.105052E-2,0
PROPCUBE 3,2015-058K,2026-07-16T23:45:59.374656,14.94424333,.01259129,64.7675,159.4067,48.3216,312.8592,0,U,40973,999,11925,.18759367E-3,.2187E-4,0
BISONSAT,2015-058L,2026-07-16T23:17:48.201792,15.16960539,.0082329,64.7581,77.2896,35.0939,325.5570,0,U,40974,999,12013,.35466767E-3,.7466E-4,0
SNAP-3 JIMI,2015-058M,2026-07-17T05:00:19.331712,15.02625998,.01079965,64.7650,124.7624,43.5616,317.3966,0,U,40975,999,11873,.26868852E-3,.3885E-4,0
PROPCUBE 1 (FLORA),2015-058N,2026-07-17T06:42:11.884608,14.89334081,.01326334,64.7717,201.9630,49.2919,311.9623,0,U,40976,999,12074,.1311602E-3,.1292E-4,0
SINOD-D 3,2015-058P,2026-07-16T23:02:06.241344,14.94182425,.01212082,64.7706,182.8349,46.4590,314.6514,0,U,40977,999,11920,.19967563E-3,.2297E-4,0
RAVAN,2016-067B,2026-07-16T16:29:31.011072,15.57575989,.00024225,97.9839,90.7306,209.8992,150.2123,0,U,41849,999,53228,.50617754E-3,.37324E-3,0
CELTEE 1,2016-067C,2026-07-17T02:20:44.375712,15.19951703,.00023622,98.0628,66.7044,107.7309,252.4182,0,U,41850,999,53042,.13018474E-3,.2721E-4,0
OPTICUBE 04,2016-067D,2026-07-16T20:07:06.750912,15.09775775,.00160571,98.0673,51.6669,22.5432,337.6498,0,U,41851,999,52964,.59841077E-4,.897E-5,0
AEROCUBE 8D,2016-067E,2026-07-17T02:00:47.829024,15.24785915,.00044749,98.0637,70.5317,51.9450,308.2189,0,U,41852,999,53062,.16734226E-3,.4067E-4,0
AEROCUBE 8C,2016-067F,2026-07-16T13:53:46.881312,15.25035356,.00040702,98.0512,67.1784,336.3351,23.7698,0,U,41853,999,53054,.16745661E-3,.4101E-4,0
CORVUS BC2,2017-042X,2026-07-16T22:53:16.085760,15.06460908,.00132787,97.4092,358.1541,17.2142,342.9533,0,U,42846,999,49154,.78260368E-4,.1097E-4,0
CORVUS BC1,2017-042Y,2026-07-16T21:05:09.453696,15.06624631,.00114683,97.4122,358.9151,354.1091,6.0000,0,U,42847,999,49156,.10165446E-3,.1449E-4,0
MAKERSAT 0,2017-073D,2026-07-16T10:20:26.018880,15.33035166,.0105507,97.4577,80.1901,167.8681,192.5141,0,U,43016,999,47094,.30313E-3,.11478E-3,0
SIRION PATHFINDER-2,2018-099B,2026-07-16T15:29:53.737440,15.14783275,.00086063,97.4236,246.0049,186.2645,173.8481,0,U,43759,999,41708,.1054177E-3,.1892E-4,0
CORVUS BC4,2018-099K,2026-07-16T15:01:57.377856,15.12708038,.00065584,97.4049,239.7463,254.7281,105.3225,0,U,43767,999,41685,.10673535E-3,.1806E-4,0
